{
  "norad_id": 47565,
  "name": "STARLINK-1964",
  "history": [
    {
      "epoch": "2026-03-28T19:35:01.611168Z",
      "apogee_km": 361.3808267879067,
      "perigee_km": 351.1732060866316,
      "latitude_deg": -1.279980909450792e-05,
      "longitude_deg": 114.78626402791369,
      "height_km": 352.07596188217883,
      "semi_major_axis_km": 6734.414016437269,
      "eccentricity": 0.00075787,
      "inclination_deg": 53.0417,
      "raan_deg": 234.774,
      "arg_perigee_deg": 359.7786,
      "mean_anomaly_deg": 0.3226,
      "mean_motion_rev_day": 15.70916291
    }
  ]
}